GRACE-1                 
1 27391U 02012A   17345.88393279  .00086260  16131-5  26324-3 0  9995
2 27391  88.9824 294.4642 0004908  52.5789   1.2686 15.91858819885594
